[{"OBJECT_NAME":"ONEWEB-0664","OBJECT_ID":"2023-029AE","EPOCH":"2026-03-09T15:31:42.897792","MEAN_MOTION":13.20771965,"ECCENTRICITY":0.0001137,"INCLINATION":87.9162,"RA_OF_ASC_NODE":294.3685,"ARG_OF_PERICENTER":95.6788,"MEAN_ANOMALY":264.4474,"EPHEMERIS_TYPE":0,"CLASSIFICATION_TYPE":"U","NORAD_CAT_ID":55824,"ELEMENT_SET_NO":999,"REV_AT_EPOCH":14800,"BSTAR":-0.00082688,"MEAN_MOTION_DOT":-3.23e-6,"MEAN_MOTION_DDOT":0},{"OBJECT_NAME":"COSMOS 2499 DEB","OBJECT_ID":"2014-028BK","EPOCH":"2026-03-06T09:38:24.504864","MEAN_MOTION":12.88948884,"ECCENTRICITY":0.02322364,"INCLINATION":82.4073,"RA_OF_ASC_NODE":316.6926,"ARG_OF_PERICENTER":251.0786,"MEAN_ANOMALY":106.5018,"EPHEMERIS_TYPE":0,"CLASSIFICATION_TYPE":"U","NORAD_CAT_ID":56576,"ELEMENT_SET_NO":999,"REV_AT_EPOCH":14656,"BSTAR":-0.00089733266,"MEAN_MOTION_DOT":-2.51e-6,"MEAN_MOTION_DDOT":0}]
